OBJECT_NAME,OBJECT_ID,EPOCH,MEAN_MOTION,ECCENTRICITY,INCLINATION,RA_OF_ASC_NODE,ARG_OF_PERICENTER,MEAN_ANOMALY,EPHEMERIS_TYPE,CLASSIFICATION_TYPE,NORAD_CAT_ID,ELEMENT_SET_NO,REV_AT_EPOCH,BSTAR,MEAN_MOTION_DOT,MEAN_MOTION_DDOT
SAUDISAT 1C (SO-50),2002-058C,2026-06-09T16:05:11.410944,14.83030513,.00754288,64.5504,152.2423,263.8699,95.3809,0,U,27607,999,26334,.13084659E-3,.963E-5,0
SAUDISAT 2,2004-025F,2026-06-09T17:56:58.229088,14.56679512,.00239077,98.5506,160.5376,322.0188,37.9322,0,U,28371,999,16466,.65296785E-4,.243E-5,0
SAUDISAT 3,2007-012B,2026-06-09T13:47:10.826304,14.71421276,.00133322,98.1453,110.9702,250.2155,109.7614,0,U,31118,999,2662,.49512837E-4,.256E-5,0
PISAT,2016-059B,2026-06-09T18:53:59.605152,14.68970869,.00278542,97.8178,161.5583,227.1811,132.7054,0,U,41784,999,51865,.15086557E-3,.841E-5,0
FLYING LAPTOP,2017-042G,2026-06-09T22:04:24.138048,15.01100148,.00192219,97.4660,316.7345,145.4184,214.8295,0,U,42831,999,48536,.32210797E-3,.4081E-4,0
SALSAT,2020-068K,2026-06-09T18:05:43.961856,15.29692121,.00087133,97.8854,163.3666,338.5586,21.5287,0,U,46495,999,31422,.26681047E-3,.7599E-4,0
